CCSDS_OMM_VERS = 2.0
CREATION_DATE  = 
ORIGINATOR     = 

OBJECT_NAME    = XRISM
OBJECT_ID      = 2023-137A
CENTER_NAME    = EARTH
REF_FRAME      = TEME
TIME_SYSTEM    = UTC
MEAN_ELEMENT_THEORY = SGP/SGP4

EPOCH          = 2026-03-27T22:21:33.225984
MEAN_MOTION    = 15.11705198
ECCENTRICITY   = .0007961
INCLINATION    = 31.0015
RA_OF_ASC_NODE = 165.6537
ARG_OF_PERICENTER = 222.9468
MEAN_ANOMALY   = 137.0550

EPHEMERIS_TYPE = 0
CLASSIFICATION_TYPE = U
NORAD_CAT_ID   = 57800
ELEMENT_SET_NO = 999
REV_AT_EPOCH   = 14055
BSTAR          = .34432E-3
MEAN_MOTION_DOT = .6112E-4
MEAN_MOTION_DDOT = 0

CCSDS_OMM_VERS = 2.0
CREATION_DATE  = 
ORIGINATOR     = 

OBJECT_NAME    = ACS3
OBJECT_ID      = 2024-077B
CENTER_NAME    = EARTH
REF_FRAME      = TEME
TIME_SYSTEM    = UTC
MEAN_ELEMENT_THEORY = SGP/SGP4

EPOCH          = 2026-03-28T01:39:57.932064
MEAN_MOTION    = 13.90433645
ECCENTRICITY   = .0072299
INCLINATION    = 97.1971
RA_OF_ASC_NODE = 24.0497
ARG_OF_PERICENTER = 34.4791
MEAN_ANOMALY   = 326.1033

EPHEMERIS_TYPE = 0
CLASSIFICATION_TYPE = U
NORAD_CAT_ID   = 59588
ELEMENT_SET_NO = 999
REV_AT_EPOCH   = 9675
BSTAR          = .18023E-1
MEAN_MOTION_DOT = .229E-3
MEAN_MOTION_DDOT = 0

CCSDS_OMM_VERS = 2.0
CREATION_DATE  = 
ORIGINATOR     = 

OBJECT_NAME    = SZ-21 MODULE
OBJECT_ID      = 2025-246C
CENTER_NAME    = EARTH
REF_FRAME      = TEME
TIME_SYSTEM    = UTC
MEAN_ELEMENT_THEORY = SGP/SGP4

EPOCH          = 2026-03-28T00:28:50.929824
MEAN_MOTION    = 15.69941824
ECCENTRICITY   = .0001524
INCLINATION    = 41.4744
RA_OF_ASC_NODE = 90.4022
ARG_OF_PERICENTER = 210.0014
MEAN_ANOMALY   = 150.0741

EPHEMERIS_TYPE = 0
CLASSIFICATION_TYPE = U
NORAD_CAT_ID   = 66515
ELEMENT_SET_NO = 999
REV_AT_EPOCH   = 2095
BSTAR          = .31887E-3
MEAN_MOTION_DOT = .39261E-3
MEAN_MOTION_DDOT = 0

