XRISM                   
1 57800U 23137A   26086.93163456  .00006112  00000+0  34432-3 0  9993
2 57800  31.0015 165.6537 0007961 222.9468 137.0550 15.11705198140555
ACS3                    
1 59588U 24077B   26087.06942051  .00022900  00000+0  18023-1 0  9992
2 59588  97.1971  24.0497 0072299  34.4791 326.1033 13.90433645 96757
SZ-21 MODULE            
1 66515U 25246C   26087.02003391  .00039261  00000+0  31887-3 0  9993
2 66515  41.4744  90.4022 0001524 210.0014 150.0741 15.69941824 20959
